OBJECT_NAME,OBJECT_ID,EPOCH,MEAN_MOTION,ECCENTRICITY,INCLINATION,RA_OF_ASC_NODE,ARG_OF_PERICENTER,MEAN_ANOMALY,EPHEMERIS_TYPE,CLASSIFICATION_TYPE,NORAD_CAT_ID,ELEMENT_SET_NO,REV_AT_EPOCH,BSTAR,MEAN_MOTION_DOT,MEAN_MOTION_DDOT
STARLINK-35901,2025-294P,2026-05-13T22:02:17.265696,15.27595665,.0001523,43.0026,29.8207,261.0721,98.9958,0,U,67043,999,2477,.64081E-3,.17422E-3,0
STARLINK-35884,2025-294Q,2026-05-14T00:15:06.636672,15.27582624,.00011785,43.0072,28.7949,295.9055,64.1675,0,U,67044,999,2479,.42351123E-3,.11411E-3,0
STARLINK-35891,2025-294R,2026-05-13T00:22:38.118144,15.27546680,.00046842,43.0013,35.0853,279.8506,80.1816,0,U,67045,999,2463,.30965502E-3,.8261E-4,0
STARLINK-35721,2025-294S,2026-05-13T23:43:50.780352,15.27588415,.0001421,43.0030,29.4905,268.6262,91.4427,0,U,67046,999,2478,.50981816E-3,.13797E-3,0
STARLINK-35779,2025-294T,2026-05-13T23:14:14.191584,15.27586481,.00016887,43.0045,29.3382,264.4376,95.6284,0,U,67047,999,2478,.44709461E-3,.12063E-3,0
STARLINK-35905,2025-294U,2026-05-13T23:30:53.800704,15.27590974,.0001416,43.0023,29.4264,269.0785,90.9905,0,U,67048,999,2478,.86982E-3,.23759E-3,0
STARLINK-35877,2025-294V,2026-05-13T22:17:05.608032,15.27583362,.00011919,43.0010,29.9002,272.1390,87.9325,0,U,67049,999,2477,.38327615E-3,.10301E-3,0
STARLINK-36078,2025-294W,2026-05-13T10:24:20.001312,15.27570670,.00008232,43.0049,32.1967,261.1473,98.9285,0,U,67050,999,2470,.57723362E-3,.15651E-3,0
STARLINK-35706,2025-294X,2026-05-13T23:23:29.468832,15.27588712,.00017561,43.0034,29.3835,281.7398,78.3257,0,U,67051,999,2478,.52756191E-3,.14287E-3,0
STARLINK-35720,2025-294Y,2026-05-13T23:12:22.914432,15.27590123,.0001936,43.0042,29.3191,247.6380,112.4267,0,U,67052,999,2478,.49252245E-3,.1332E-3,0
STARLINK-35739,2025-294Z,2026-05-13T23:38:17.784384,15.27597213,.00013474,43.0004,29.4573,255.7292,104.3410,0,U,67053,999,2478,.53194699E-3,.14412E-3,0
STARLINK-35754,2025-294AA,2026-05-13T23:16:05.212128,15.27586578,.00015929,43.0058,29.3419,249.5734,110.4947,0,U,67054,999,2478,.45158481E-3,.12187E-3,0
STARLINK-35790,2025-294AB,2026-05-13T23:41:59.712288,15.27590157,.00013625,43.0011,29.4804,266.9172,93.1524,0,U,67055,999,2478,.53135367E-3,.14393E-3,0
STARLINK-36143,2025-294AC,2026-05-13T23:08:41.116992,15.27586033,.00013544,43.0048,29.3056,257.6479,102.4221,0,U,67056,999,2478,.37243159E-3,.10002E-3,0
STARLINK-36141,2025-294AD,2026-05-13T23:03:08.360352,15.27569958,.00028046,43.0051,29.2764,267.2275,92.8255,0,U,67057,999,2478,.3463424E-3,.9278E-4,0
STARLINK-35767,2025-294AE,2026-05-13T23:53:05.898624,15.27595067,.00016295,43.0028,29.5352,278.2252,81.8415,0,U,67058,999,2478,.39156593E-3,.10533E-3,0
HULIANWANG DIGUI-119,2025-295A,2026-05-14T07:49:14.231424,13.29326623,.00007808,50.0007,147.2288,311.2711,48.8093,0,U,67059,999,2099,.94667004E-4,-.8E-6,0
HULIANWANG DIGUI-120,2025-295B,2026-05-14T07:25:10.767360,13.29326693,.00007523,50.0016,147.1492,314.9462,45.1350,0,U,67060,999,2099,.1068072E-3,-.74E-6,0
HULIANWANG DIGUI-121,2025-295C,2026-05-14T07:37:12.689472,13.29326385,.00007641,49.9976,147.1370,311.4464,48.6342,0,U,67061,999,2099,.98363982E-4,-.78E-6,0
HULIANWANG DIGUI-122,2025-295D,2026-05-14T07:13:05.116224,13.29328154,.00007583,50.0014,147.0984,311.6304,48.4503,0,U,67062,999,2099,.10091483E-3,-.77E-6,0
HULIANWANG DIGUI-123,2025-295E,2026-05-14T07:01:05.111328,13.29327710,.00007423,50.0011,147.0584,311.3864,48.6944,0,U,67063,999,2099,.11036938E-3,-.73E-6,0
HULIANWANG DIGUI-124,2025-295F,2026-05-14T06:49:10.354368,13.29324980,.00007399,49.9972,146.9552,312.9999,47.0811,0,U,67064,999,2099,.95506289E-4,-.8E-6,0
HULIANWANG DIGUI-125,2025-295G,2026-05-14T06:37:05.772864,13.29325558,.00007582,49.9963,146.8994,310.1563,49.9243,0,U,67065,999,2099,.85604466E-4,-.84E-6,0
HULIANWANG DIGUI-126,2025-295H,2026-05-14T06:25:00.689376,13.29326658,.0000828,49.9966,146.8580,312.5868,47.4934,0,U,67066,999,2099,.86805163E-4,-.84E-6,0
HULIANWANG DIGUI-127,2025-295J,2026-05-14T08:01:14.880864,13.29326756,.00007698,49.9984,146.5713,311.4561,48.6245,0,U,67067,999,2100,.93928655E-4,-.8E-6,0
XIWANG-5 02,2025-296A,2026-05-14T05:15:36.554112,15.15929190,.00044416,41.3524,314.8355,266.1016,93.9297,0,U,67069,999,2308,.31879487E-3,.6034E-4,0
DEAR-5,2025-296B,2026-05-13T23:05:56.273568,15.17422502,.00180153,41.3601,312.9465,340.6355,19.3781,0,U,67070,999,2307,.16262951E-3,.3122E-4,0
RAISE-4,2025-297B,2026-05-14T07:33:09.148608,15.08750789,.00132393,97.5071,283.1031,147.9950,212.2086,0,U,67073,999,2278,.14955057E-3,.229E-4,0
STARLINK-36230,2025-298A,2026-05-14T07:15:39.952800,14.98350029,.00037737,70.0012,209.0977,269.3862,90.6864,0,U,67075,999,2304,-.28373138E-3,-.3479E-4,0
STARLINK-36240,2025-298B,2026-05-14T07:03:41.141088,14.98338475,.00034242,70.0018,209.0683,266.9969,93.0798,0,U,67076,999,2304,.39356779E-3,.4607E-4,0
STARLINK-36243,2025-298C,2026-05-14T07:39:43.250112,14.98336343,.00034292,70.0012,209.1558,270.3415,89.7351,0,U,67077,999,2304,.25175056E-3,.2913E-4,0
STARLINK-36236,2025-298D,2026-05-14T07:27:41.933664,14.98337100,.00036289,70.0013,209.1261,269.2516,90.8227,0,U,67078,999,2304,.24814163E-3,.287E-4,0
STARLINK-36159,2025-298E,2026-05-14T06:21:34.936416,14.98335089,.00034549,70.0015,208.9749,269.6933,90.3830,0,U,67079,999,2304,.21100336E-3,.2426E-4,0
STARLINK-36158,2025-298F,2026-05-14T06:15:19.941408,14.98334614,.00033836,70.0021,208.9519,269.1335,90.9436,0,U,67080,999,2304,.2059324E-3,.2365E-4,0
STARLINK-35864,2025-298G,2026-05-14T06:27:21.165408,14.98336803,.00039691,70.0018,208.9823,267.8965,92.1740,0,U,67081,999,2304,.24509934E-3,.2833E-4,0
STARLINK-36035,2025-298H,2026-05-14T06:39:22.488768,14.98338819,.00037137,70.0014,209.0113,266.8859,93.1875,0,U,67082,999,2304,.3025771E-3,.352E-4,0
STARLINK-36170,2025-298J,2026-05-14T07:15:27.055872,14.98323755,.00036058,70.0013,209.0923,268.5763,91.4983,0,U,67083,999,2303,.33762653E-3,.3937E-4,0
STARLINK-36166,2025-298K,2026-05-14T07:33:27.094752,14.98344524,.00031057,70.0028,209.1395,247.4034,112.6796,0,U,67084,999,2304,.16326036E-3,.1856E-4,0
STARLINK-35794,2025-298L,2026-05-14T06:51:25.254144,14.98339655,.0003385,70.0015,209.0434,269.0097,91.0674,0,U,67085,999,2304,.33020494E-3,.385E-4,0
STARLINK-35841,2025-298M,2026-05-14T05:44:04.765920,15.00185987,.00117145,70.0006,209.2715,238.0520,121.9502,0,U,67086,999,2303,.36823402E-1,.489625E-2,0
STARLINK-35842,2025-298N,2026-05-14T06:45:37.501056,14.98337179,.0003617,70.0018,209.0380,268.8929,91.1815,0,U,67087,999,2304,.24887689E-3,.2878E-4,0
STARLINK-35882,2025-298P,2026-05-14T07:39:28.652832,14.98335011,.00040986,70.0016,209.1502,267.9352,92.1338,0,U,67088,999,2304,.49608612E-4,.499E-5,0
STARLINK-35763,2025-298Q,2026-05-14T07:45:43.251264,14.98335998,.00030739,70.0027,209.1710,261.0566,99.0245,0,U,67089,999,2304,-.70494041E-4,-.934E-5,0
STARLINK-36060,2025-298R,2026-05-14T06:57:37.962144,14.98322150,.00029568,70.0051,209.0514,261.4702,98.6122,0,U,67090,999,2304,-.46260187E-3,-.5607E-4,0
STARLINK-36097,2025-298S,2026-05-14T07:44:49.852608,15.34704365,.00053739,69.9962,199.5714,299.6050,60.4592,0,U,67091,999,2328,.15031891E-2,.50929E-3,0
STARLINK-35792,2025-298T,2026-05-12T15:17:47.885856,14.99015050,.00040284,70.0013,213.3166,218.7656,141.3215,0,U,67092,999,2279,.12937924E-1,.160704E-2,0
STARLINK-35784,2025-298U,2026-05-14T06:33:21.888864,14.98337348,.00035545,70.0009,208.9981,268.5486,91.5266,0,U,67093,999,2304,.29302796E-3,.3406E-4,0
STARLINK-36202,2025-298V,2026-05-14T06:21:20.511072,14.98335847,.00037636,70.0013,208.9675,268.3061,91.7667,0,U,67094,999,2304,.21820759E-3,.2512E-4,0
STARLINK-36227,2025-298W,2026-05-14T06:51:39.593952,14.98339214,.00043637,70.0018,209.0361,273.9573,86.1088,0,U,67095,999,2304,.34071126E-3,.3976E-4,0
STARLINK-36228,2025-298X,2026-05-14T07:09:25.641216,14.98337941,.00034004,70.0016,209.0756,269.1240,90.9530,0,U,67096,999,2304,.27965356E-3,.3246E-4,0
STARLINK-36222,2025-298Y,2026-05-14T07:27:27.636192,14.98337694,.00033683,70.0011,209.1198,269.0741,91.0032,0,U,67097,999,2304,.22331328E-3,.2573E-4,0
STARLINK-36205,2025-298Z,2026-05-14T06:45:23.136192,14.98338716,.00038009,70.0013,209.0264,268.3267,91.7457,0,U,67098,999,2304,.30371489E-3,.3534E-4,0
STARLINK-36193,2025-298AA,2026-05-14T06:27:35.451648,14.98338411,.00036192,70.0017,208.9912,267.1831,92.8914,0,U,67099,999,2304,.26675334E-3,.3092E-4,0
STARLINK-36215,2025-298AB,2026-05-14T06:57:24.837120,14.98321032,.0003634,70.0016,209.0447,271.1597,88.9146,0,U,67100,999,2304,-.19546467E-3,-.2424E-4,0
STARLINK-36200,2025-298AC,2026-05-14T07:33:40.286304,14.98320915,.00053499,70.0019,209.1401,299.3553,60.7071,0,U,67101,999,2304,-.27841829E-3,-.3414E-4,0
STARLINK-36255,2025-299A,2026-05-13T09:55:22.804896,15.27585337,.00020276,43.0006,163.5825,283.7169,76.3457,0,U,67102,999,2301,.28569458E-3,.7609E-4,0
STARLINK-36256,2025-299B,2026-05-13T03:29:30.712704,15.27585782,.00010948,42.9997,165.0101,260.1983,99.8745,0,U,67103,999,2297,.4527347E-3,.12219E-3,0
STARLINK-36258,2025-299C,2026-05-13T08:32:19.524192,15.27577922,.00013395,43.0002,163.9991,267.7229,92.3469,0,U,67104,999,2300,.18963988E-3,.496E-4,0
STARLINK-36261,2025-299D,2026-05-13T03:33:13.063968,15.27559860,.00016519,42.9992,165.0278,234.6453,125.4245,0,U,67105,999,2297,.3218748E-3,.86E-4,0
STARLINK-36259,2025-299E,2026-05-13T09:09:08.366112,15.27582651,.00010013,42.9992,163.3341,281.3733,78.7006,0,U,67106,999,2301,.33587857E-3,.8993E-4,0
STARLINK-36196,2025-299F,2026-05-13T09:51:40.578048,15.27585729,.00015715,43.0038,163.5587,261.5230,98.5444,0,U,67107,999,2301,.42531069E-3,.11462E-3,0
STARLINK-36208,2025-299G,2026-05-13T09:05:26.217024,15.27566569,.00012119,43.0018,163.3093,285.1673,74.9045,0,U,67108,999,2301,.31344053E-3,.8369E-4,0
STARLINK-35764,2025-299H,2026-05-12T19:22:02.892288,15.27568436,.00017704,43.0025,166.7622,264.5437,95.5213,0,U,67109,999,2401,.34725699E-3,.9302E-4,0
STARLINK-35781,2025-299J,2026-05-13T10:13:52.706208,15.27583653,.00008379,42.9990,163.6717,249.4477,110.6285,0,U,67110,999,2301,.35119944E-3,.9416E-4,0
